STARLINK-37524          
1 68842U 26094D   26187.99434775  .00016133  00000+0  50117-3 0  9991
2 68842  97.2834 202.1523 0001380  89.5477 270.5924 15.33433553 11084
STARLINK-37219          
1 68843U 26094E   26188.41672454  .00128837  00000+0  23369-2 0  9991
2 68843  97.2852 205.3665 0001675 127.7798 163.0738 15.49129130  6022
STARLINK-37538          
1 68844U 26094F   26187.92633941  .00018091  00000+0  56061-3 0  9991
2 68844  97.2835 202.0937 0001574 102.6538 257.4881 15.33487214 11073
STARLINK-37539          
1 68845U 26094G   26187.98619157  .00015252  00000+0  47400-3 0  9994
2 68845  97.2835 202.1639 0001481  84.4755 275.6657 15.33432393 11081
STARLINK-37547          
1 68846U 26094H   26187.59736350  .00043947  00000+0  13547-2 0  9993
2 68846  97.2830 201.7734 0001176  92.9143 267.2235 15.33469022 11026
STARLINK-37465          
1 68847U 26094J   26187.59193772  .00018837  00000+0  58473-3 0  9997
2 68847  97.2839 201.7823 0001193  75.0773 285.0602 15.33424493 11024
STARLINK-37373          
1 68848U 26094K   26187.58921826  .00018467  00000+0  57332-3 0  9998
2 68848  97.2836 201.7860 0001276  88.0762 272.0626 15.33424482 11027
STARLINK-37492          
1 68849U 26094L   26187.58649919  .00017007  00000+0  52830-3 0  9996
2 68849  97.2838 201.7895 0001467  85.2874 274.8536 15.33422961 11023
STARLINK-37482          
1 68850U 26094M   26187.97259662  .00014745  00000+0  45834-3 0  9995
2 68850  97.2835 202.1821 0001610  89.3935 270.7492 15.33432846 11084
STARLINK-37382          
1 68851U 26094N   26187.58378016  .00017620  00000+0  54719-3 0  9995
2 68851  97.2836 201.7922 0001230 104.6263 255.5117 15.33423483 11022
STARLINK-37423          
1 68852U 26094P   26188.03241269  .00014120  00000+0  43899-3 0  9995
2 68852  97.2840 202.2550 0001495 109.5609 250.5795 15.33435027 11093
STARLINK-37476          
1 68853U 26094Q   26188.49191638  .00021774  00000+0  67467-3 0  9990
2 68853  97.2837 202.7021 0001208 141.8060 218.3268 15.33453263 11167
STARLINK-37463          
1 68854U 26094R   26188.48648707  .00012814  00000+0  39864-3 0  9999
2 68854  97.2840 202.7069 0001653  80.5933 279.5496 15.33437793 11168
STARLINK-37467          
1 68855U 26094S   26188.02697463  .00023983  00000+0  74304-3 0  9990
2 68855  97.2835 202.2605 0000794  87.0018 273.1316 15.33436732 11090
STARLINK-37483          
1 68856U 26094T   26188.02425698  .00015373  00000+0  47773-3 0  9994
2 68856  97.2832 202.2652 0001788 114.1178 246.0252 15.33430670 11096
STARLINK-37468          
1 68857U 26094U   26188.47828493  .00018477  00000+0  57271-3 0  9996
2 68857  97.2838 202.7182 0000997 231.7466 128.3687 15.33475436 11164
STARLINK-37441          
1 68858U 26094V   26188.01882061  .00017140  00000+0  53221-3 0  9995
2 68858  97.2835 202.2722 0001603  80.6412 279.5012 15.33433507 11090
STARLINK-37488          
1 68859U 26094W   26188.47288773  .00014499  00000+0  45058-3 0  9999
2 68859  97.2836 202.7266 0001393  82.8860 277.2541 15.33444504 11166
STARLINK-37388          
1 68860U 26094X   26188.46744884  .00013612  00000+0  42320-3 0  9995
2 68860  97.2837 202.7325 0000924  91.3185 268.8164 15.33444168 11162
STARLINK-37479          
1 68861U 26094Y   26188.46200600  .00017675  00000+0  54834-3 0  9995
2 68861  97.2840 202.7408 0000854  82.8720 277.2620 15.33456154 11160
STARLINK-37453          
1 68862U 26094Z   26188.47014639  .00015077  00000+0  46850-3 0  9995
2 68862  97.2837 202.7299 0000592  78.6231 281.5078 15.33439736 11166
STARLINK-37430          
1 68863U 26094AA  26187.94268971  .00015632  00000+0  48577-3 0  9992
2 68863  97.2837 202.2231 0001403  72.6748 287.4648 15.33429017 11087
KUIPER-00299            
1 68864U 26095A   26188.37043383  .00001358  00000+0  22384-3 0  9998
2 68864  51.8984 159.7859 0001735 236.9787 123.1007 14.76465551 10628
KUIPER-00353            
1 68865U 26095B   26188.41672454 -.00012244  00000+0 -10005-2 0  9995
2 68865  51.8977 146.7760 0003621 356.6710 297.7154 14.98192889  5428
KUIPER-00357            
1 68866U 26095C   26188.26356505  .00002034  00000+0  29534-3 0  9997
2 68866  51.9001 154.3802 0000835  51.0556 309.0480 14.79997302 10694
KUIPER-00364            
1 68867U 26095D   26188.29449752 -.00010498  00000+0 -13514-2 0  9993
2 68867  51.8998 156.7501 0001560 149.3790 210.7263 14.79894187 10669
KUIPER-00375            
1 68868U 26095E   26188.41672454 -.00017336  00000+0 -17613-2 0  9997
2 68868  51.8980 148.2289 0003499  32.1518 273.6262 14.89949749  5904
KUIPER-00433            
1 68869U 26095F   26188.32076148  .00002161  00000+0  31249-3 0  9996
2 68869  51.8988 164.1287 0000822  70.8404 289.2647 14.79926492 10565
KUIPER-00437            
1 68870U 26095G   26188.29853133  .00024353  00000+0  63940-3 0  9991
2 68870  51.8775 145.1043 0008768  28.2510 331.8951 15.38457999 10820
KUIPER-00448            
1 68871U 26095H   26188.41672454  .00019948  00000+0  28653-2 0  9996
2 68871  51.9019 151.7825 0001485 147.6588  34.9837 14.76416645  5084
