OBJECT_NAME,OBJECT_ID,EPOCH,MEAN_MOTION,ECCENTRICITY,INCLINATION,RA_OF_ASC_NODE,ARG_OF_PERICENTER,MEAN_ANOMALY,EPHEMERIS_TYPE,CLASSIFICATION_TYPE,NORAD_CAT_ID,ELEMENT_SET_NO,REV_AT_EPOCH,BSTAR,MEAN_MOTION_DOT,MEAN_MOTION_DDOT
STARLINK-37524,2026-094D,2026-07-06T23:51:51.645600,15.33433553,.000138,97.2834,202.1523,89.5477,270.5924,0,U,68842,999,1108,.50117E-3,.16133E-3,0
STARLINK-37219,2026-094E,2026-07-07T10:00:05.000256,15.49129130,.0001675,97.2852,205.3665,127.7798,163.0738,0,U,68843,999,602,.23369E-2,.128837E-2,0
STARLINK-37538,2026-094F,2026-07-06T22:13:55.725024,15.33487214,.0001574,97.2835,202.0937,102.6538,257.4881,0,U,68844,999,1107,.56061E-3,.18091E-3,0
STARLINK-37539,2026-094G,2026-07-06T23:40:06.951648,15.33432393,.0001481,97.2835,202.1639,84.4755,275.6657,0,U,68845,999,1108,.474E-3,.15252E-3,0
STARLINK-37547,2026-094H,2026-07-06T14:20:12.206400,15.33469022,.0001176,97.2830,201.7734,92.9143,267.2235,0,U,68846,999,1102,.13547E-2,.43947E-3,0
STARLINK-37465,2026-094J,2026-07-06T14:12:23.419008,15.33424493,.0001193,97.2839,201.7823,75.0773,285.0602,0,U,68847,999,1102,.58473E-3,.18837E-3,0
STARLINK-37373,2026-094K,2026-07-06T14:08:28.457664,15.33424482,.0001276,97.2836,201.7860,88.0762,272.0626,0,U,68848,999,1102,.57332E-3,.18467E-3,0
STARLINK-37492,2026-094L,2026-07-06T14:04:33.530016,15.33422961,.0001467,97.2838,201.7895,85.2874,274.8536,0,U,68849,999,1102,.5283E-3,.17007E-3,0
STARLINK-37482,2026-094M,2026-07-06T23:20:32.347968,15.33432846,.000161,97.2835,202.1821,89.3935,270.7492,0,U,68850,999,1108,.45834E-3,.14745E-3,0
STARLINK-37382,2026-094N,2026-07-06T14:00:38.605824,15.33423483,.000123,97.2836,201.7922,104.6263,255.5117,0,U,68851,999,1102,.54719E-3,.1762E-3,0
STARLINK-37423,2026-094P,2026-07-07T00:46:40.456416,15.33435027,.0001495,97.2840,202.2550,109.5609,250.5795,0,U,68852,999,1109,.43899E-3,.1412E-3,0
STARLINK-37476,2026-094Q,2026-07-07T11:48:21.575232,15.33453263,.0001208,97.2837,202.7021,141.8060,218.3268,0,U,68853,999,1116,.67467E-3,.21774E-3,0
STARLINK-37463,2026-094R,2026-07-07T11:40:32.482848,15.33437793,.0001653,97.2840,202.7069,80.5933,279.5496,0,U,68854,999,1116,.39864E-3,.12814E-3,0
STARLINK-37467,2026-094S,2026-07-07T00:38:50.608032,15.33436732,.0000794,97.2835,202.2605,87.0018,273.1316,0,U,68855,999,1109,.74304E-3,.23983E-3,0
STARLINK-37483,2026-094T,2026-07-07T00:34:55.803072,15.33430670,.0001788,97.2832,202.2652,114.1178,246.0252,0,U,68856,999,1109,.47773E-3,.15373E-3,0
STARLINK-37468,2026-094U,2026-07-07T11:28:43.817952,15.33475436,.0000997,97.2838,202.7182,231.7466,128.3687,0,U,68857,999,1116,.57271E-3,.18477E-3,0
STARLINK-37441,2026-094V,2026-07-07T00:27:06.100704,15.33433507,.0001603,97.2835,202.2722,80.6412,279.5012,0,U,68858,999,1109,.53221E-3,.1714E-3,0
STARLINK-37488,2026-094W,2026-07-07T11:20:57.499872,15.33444504,.0001393,97.2836,202.7266,82.8860,277.2541,0,U,68859,999,1116,.45058E-3,.14499E-3,0
STARLINK-37388,2026-094X,2026-07-07T11:13:07.579776,15.33444168,.0000924,97.2837,202.7325,91.3185,268.8164,0,U,68860,999,1116,.4232E-3,.13612E-3,0
STARLINK-37479,2026-094Y,2026-07-07T11:05:17.318400,15.33456154,.0000854,97.2840,202.7408,82.8720,277.2620,0,U,68861,999,1116,.54834E-3,.17675E-3,0
STARLINK-37453,2026-094Z,2026-07-07T11:17:00.648096,15.33439736,.0000592,97.2837,202.7299,78.6231,281.5078,0,U,68862,999,1116,.4685E-3,.15077E-3,0
STARLINK-37430,2026-094AA,2026-07-06T22:37:28.390944,15.33429017,.0001403,97.2837,202.2231,72.6748,287.4648,0,U,68863,999,1108,.48577E-3,.15632E-3,0
KUIPER-00299,2026-095A,2026-07-07T08:53:25.482912,14.76465551,.0001735,51.8984,159.7859,236.9787,123.1007,0,U,68864,999,1062,.22384E-3,.1358E-4,0
KUIPER-00353,2026-095B,2026-07-07T10:00:05.000256,14.98192889,.0003621,51.8977,146.7760,356.6710,297.7154,0,U,68865,999,542,-.10005E-2,-.12244E-3,0
KUIPER-00357,2026-095C,2026-07-07T06:19:32.020320,14.79997302,.0000835,51.9001,154.3802,51.0556,309.0480,0,U,68866,999,1069,.29534E-3,.2034E-4,0
KUIPER-00364,2026-095D,2026-07-07T07:04:04.585728,14.79894187,.000156,51.8998,156.7501,149.3790,210.7263,0,U,68867,999,1066,-.13514E-2,-.10498E-3,0
KUIPER-00375,2026-095E,2026-07-07T10:00:05.000256,14.89949749,.0003499,51.8980,148.2289,32.1518,273.6262,0,U,68868,999,590,-.17613E-2,-.17336E-3,0
KUIPER-00433,2026-095F,2026-07-07T07:41:53.791872,14.79926492,.0000822,51.8988,164.1287,70.8404,289.2647,0,U,68869,999,1056,.31249E-3,.2161E-4,0
KUIPER-00437,2026-095G,2026-07-07T07:09:53.106912,15.38457999,.0008768,51.8775,145.1043,28.2510,331.8951,0,U,68870,999,1082,.6394E-3,.24353E-3,0
KUIPER-00448,2026-095H,2026-07-07T10:00:05.000256,14.76416645,.0001485,51.9019,151.7825,147.6588,34.9837,0,U,68871,999,508,.28653E-2,.19948E-3,0
